H1 CPF 01  gfz 2021 07 03 00  6841 terrasarx 
H2 0702601  6201 31698    2021 07 03 00 59 42 2021 07 08 00 00 42   120 1 1  0 0 0
H9
10 0 59399  33102.000000  0   -4644206.651   5088820.050     34825.006
10 0 59399  33222.000000  0   -4467560.371   5158707.557    937141.801
10 0 59399  33342.000000  0   -4212412.184   5134631.984   1822956.641
10 0 59399  33462.000000  0   -3884861.616   5015676.999   2676667.225
10 0 59399  33582.000000  0   -3492288.664   4802718.949   3483240.038
10 0 59399  33702.000000  0   -3043188.541   4498429.493   4228480.731
10 0 59399  33822.000000  0   -2546987.105   4107242.540   4899287.721
10 0 59399  33942.000000  0   -2013840.267   3635285.388   5483883.698
10 0 59399  34062.000000  0   -1454423.060   3090276.252   5972020.397
10 0 59399  34182.000000  0    -879713.075   2481391.278   6355153.428
10 0 59399  34302.000000  0    -300774.060   1819104.141   6626584.516
10 0 59399  34422.000000  0     271456.261   1115003.099   6781572.899
10 0 59399  34542.000000  0     826372.655    381586.038   6817412.943
10 0 59399  34662.000000  0    1353897.823   -367960.792   6733477.859
10 0 59399  34782.000000  0    1844664.486  -1119999.076   6531230.960
10 0 59399  34902.000000  0    2290181.541  -1860685.909   6214201.793
10 0 59399  35022.000000  0    2682982.072  -2576228.367   5787929.572
10 0 59399  35142.000000  0    3016751.023  -3253141.793   5259871.728
10 0 59399  35262.000000  0    3286429.037  -3878506.653   4639279.205
10 0 59399  35382.000000  0    3488292.027  -4440219.551   3937040.184
10 0 59399  35502.000000  0    3620004.226  -4927233.898   3165492.119
10 0 59399  35622.000000  0    3680642.545  -5329783.492   2338205.736
10 0 59399  35742.000000  0    3670692.237  -5639584.648   1469744.181
10 0 59399  35862.000000  0    3592013.234  -5850011.124    575401.556
10 0 59399  35982.000000  0    3447778.083  -5956236.433   -329072.728
10 0 59399  36102.000000  0    3242384.265  -5955343.086  -1227759.661
10 0 59399  36222.000000  0    2981339.292  -5846391.456  -2104860.710
10 0 59399  36342.000000  0    2671125.035  -5630449.280  -2944982.316
10 0 59399  36462.000000  0    2319043.965  -5310580.615  -3733412.228
10 0 59399  36582.000000  0    1933050.475  -4891794.149  -4456379.555
10 0 59399  36702.000000  0    1521572.762  -4380953.711  -5101292.117
10 0 59399  36822.000000  0    1093331.524  -3786655.216  -5656949.144
10 0 59399  36942.000000  0     657157.799  -3119072.845  -6113726.880
10 0 59399  37062.000000  0     221813.490  -2389778.187  -6463734.190
10 0 59399  37182.000000  0    -204181.139  -1611536.039  -6700937.614
10 0 59399  37302.000000  0    -612709.735   -798080.704  -6821255.273
10 0 59399  37422.000000  0    -996209.649     36123.823  -6822619.629
10 0 59399  37542.000000  0   -1347808.297    876135.589  -6705008.067
10 0 59399  37662.000000  0   -1661443.472   1706795.299  -6470443.027
10 0 59399  37782.000000  0   -1931965.443   2512992.973  -6122960.821
10 0 59399  37902.000000  0   -2155221.182   3279937.501  -5668551.127
10 0 59399  38022.000000  0   -2328118.450   3993425.982  -5115063.878
10 0 59399  38142.000000  0   -2448669.160   4640108.018  -4472085.589
10 0 59399  38262.000000  0   -2516010.961   5207740.527  -3750783.354
10 0 59399  38382.000000  0   -2530405.312   5685425.771  -2963718.822
10 0 59399  38502.000000  0   -2493212.234   6063829.213  -2124636.902
10 0 59399  38622.000000  0   -2406842.591   6335373.303  -1248228.504
10 0 59399  38742.000000  0   -2274687.876   6494397.742   -349871.688
10 0 59399  38862.000000  0   -2101029.860   6537285.900    554640.592
10 0 59399  38982.000000  0   -1890931.181   6462553.565   1449387.372
10 0 59399  39102.000000  0   -1650107.770   6270889.963   2318611.583
10 0 59399  39222.000000  0   -1384788.379   5965154.262   3147005.860
10 0 59399  39342.000000  0   -1101565.702   5550329.632   3919988.207
10 0 59399  39462.000000  0    -807242.926   5033436.386   4623963.567
10 0 59399  39582.000000  0    -508677.346   4423403.509   5246566.680
10 0 59399  39702.000000  0    -212625.361   3730903.618   5776876.141
10 0 59399  39822.000000  0      74404.745   2968158.698   6205602.751
10 0 59399  39942.000000  0     346291.456   2148716.092   6525246.828
10 0 59399  40062.000000  0     597427.107   1287203.288   6730223.235
10 0 59399  40182.000000  0     822830.984    399063.442   6816953.142
10 0 59399  40302.000000  0    1018246.284   -499721.159   6783921.779
10 0 59399  40422.000000  0    1180219.711  -1392915.755   6631704.488
10 0 59399  40542.000000  0    1306162.566  -2264326.001   6362957.609
10 0 59399  40662.000000  0    1394392.260  -3098091.832   5982375.649
10 0 59399  40782.000000  0    1444153.245  -3878978.459   5496613.661
10 0 59399  40902.000000  0    1455617.364  -4592657.259   4914175.340
10 0 59399  41022.000000  0    1429864.709  -5225972.924   4245270.814
10 0 59399  41142.000000  0    1368844.312  -5767195.008   3501643.571
10 0 59399  41262.000000  0    1275315.266  -6206245.204   2696365.254
10 0 59399  41382.000000  0    1152769.113  -6534893.436   1843605.188
10 0 59399  41502.000000  0    1005335.252  -6746921.434    958378.761
10 0 59399  41622.000000  0     837672.299  -6838248.118     56277.317
10 0 59399  41742.000000  0     654846.576  -6807013.302   -846815.891
10 0 59399  41862.000000  0     462201.147  -6653613.358  -1735016.195
10 0 59399  41982.000000  0     265221.087  -6380690.652  -2592724.659
10 0 59399  42102.000000  0      69397.266  -5993079.803  -3404907.355
10 0 59399  42222.000000  0    -119908.368  -5497711.493  -4157362.332
10 0 59399  42342.000000  0    -297592.625  -4903475.183  -4836967.747
10 0 59399  42462.000000  0    -458932.552  -4221046.841  -5431905.502
10 0 59399  42582.000000  0    -599696.028  -3462686.434  -5931859.017
10 0 59399  42702.000000  0    -716238.859  -2642009.416  -6328181.976
10 0 59399  42822.000000  0    -805587.067  -1773737.465  -6614036.569
10 0 59399  42942.000000  0    -865502.994   -873433.829  -6784500.151
10 0 59399  43062.000000  0    -894534.430     42772.629  -6836641.533
10 0 59399  43182.000000  0    -892045.416    958471.085  -6769564.901
10 0 59399  43302.000000  0    -858229.021   1857254.881  -6584423.151
10 0 59399  43422.000000  0    -794102.064   2723007.922  -6284400.202
10 0 59399  43542.000000  0    -701481.240   3540187.945  -5874663.557
10 0 59399  43662.000000  0    -582941.215   4294103.763  -5362284.762
10 0 59399  43782.000000  0    -441754.924   4971180.065  -4756128.386
10 0 59399  43902.000000  0    -281817.747   5559207.404  -4066710.156
10 0 59399  44022.000000  0    -107556.192   6047571.153  -3306023.872
10 0 59399  44142.000000  0      76177.402   6427453.817  -2487340.023
10 0 59399  44262.000000  0     264221.831   6692006.926  -1624978.547
10 0 59399  44382.000000  0     451233.140   6836487.378   -734058.532
10 0 59399  44502.000000  0     631817.174   6858353.518    169770.472
10 0 59399  44622.000000  0     800665.281   6757317.913   1070610.097
10 0 59399  44742.000000  0     952689.088   6535354.114   1952601.345
10 0 59399  44862.000000  0    1083149.645   6196657.875   2800212.148
10 0 59399  44982.000000  0    1187779.206   5747565.453   3598518.198
10 0 59399  45102.000000  0    1262892.871   5196428.412   4333472.277
10 0 59399  45222.000000  0    1305488.353   4553450.721   4992156.451
10 0 59399  45342.000000  0    1313326.297   3830486.342   5563010.968
10 0 59399  45462.000000  0    1284995.277   3040811.047   6036031.059
10 0 59399  45582.000000  0    1219957.608   2198872.051   6402938.001
10 0 59399  45702.000000  0    1118575.150   1320017.948   6657318.561
10 0 59399  45822.000000  0     982115.366    420214.963   6794730.760
10 0 59399  45942.000000  0     812737.303   -484242.972   6812775.573
10 0 59399  46062.000000  0     613457.531  -1377028.216   6711137.744
10 0 59399  46182.000000  0     388096.297  -2242074.264   6491591.298
10 0 59399  46302.000000  0     141204.601  -3063865.177   6157970.934
10 0 59399  46422.000000  0    -122025.980  -3827715.750   5716107.145
10 0 59399  46542.000000  0    -395868.654  -4520034.469   5173728.514
10 0 59399  46662.000000  0    -674180.736  -5128569.227   4540334.882
10 0 59399  46782.000000  0    -950536.453  -5642634.005   3827038.341
10 0 59399  46902.000000  0   -1218369.763  -6053306.829   3046370.317
10 0 59399  47022.000000  0   -1471123.299  -6353593.625   2212061.707
10 0 59399  47142.000000  0   -1702400.424  -6538556.938   1338800.022
10 0 59399  47262.000000  0   -1906117.866  -6605404.333    441964.835
10 0 59399  47382.000000  0   -2076652.022  -6553532.685   -462651.391
10 0 59399  47502.000000  0   -2208976.657  -6384528.566  -1359130.190
10 0 59399  47622.000000  0   -2298788.848  -6102124.733  -2231715.562
10 0 59399  47742.000000  0   -2342620.119  -5712114.020  -3065098.251
10 0 59399  47862.000000  0   -2337929.567  -5222222.233  -3844689.679
10 0 59399  47982.000000  0   -2283176.556  -4641943.975  -4556878.421
10 0 59399  48102.000000  0   -2177871.864  -3982347.675  -5189264.249
10 0 59399  48222.000000  0   -2022606.954  -3255855.414  -5730867.115
10 0 59399  48342.000000  0   -1819061.003  -2476002.275  -6172309.082
10 0 59399  48462.000000  0   -1569985.094  -1657179.467  -6505966.341
10 0 59399  48582.000000  0   -1279164.741   -814367.560  -6726088.949
10 0 59399  48702.000000  0    -951362.613     37135.013  -6828889.268
10 0 59399  48822.000000  0    -592241.258    881984.031  -6812599.478
10 0 59399  48942.000000  0    -208266.738   1705058.795  -6677498.478
10 0 59399  49062.000000  0     193403.879   2491725.488  -6425907.669
10 0 59399  49182.000000  0     605051.877   3228092.442  -6062157.559
10 0 59399  49302.000000  0    1018541.907   3901253.715  -5592520.938
10 0 59399  49422.000000  0    1425478.127   4499515.074  -5025114.486
10 0 59399  49542.000000  0    1817370.730   5012601.538  -4369770.759
99
